NORAD_CAT_ID,OBJECT_NAME,OBJECT_TYPE,EPOCH,MEAN_MOTION,ECCENTRICITY,INCLINATION,RA_OF_ASC_NODE,ARG_OF_PERICENTER,MEAN_ANOMALY,BSTAR,MEAN_MOTION_DOT,MEAN_MOTION_DDOT,TLE_LINE0,TLE_LINE1,TLE_LINE2,SEMIMAJOR_AXIS,PERIOD,APOGEE,PERIGEE,DECAYED
52647.0,STARLINK-3846,PAYLOAD,2024-05-12 22:30:09,15.0880716,8.96e-05,53.2178,7.9061,70.1321,289.9768,0.0032749,0.00052171,0.0,0 STARLINK-3846,1 52647U 22052BB  24133.93761103  .00052171  00000-0  32749-2 0  9991,2 52647  53.2178   7.9061 0000896  70.1321 289.9768 15.08807160110638,6917.981,95.44,540.466,539.226,0.0
52647.0,STARLINK-3846,PAYLOAD,2024-05-13 08:02:28,15.08859216,9.95e-05,53.2189,6.1204,68.0857,292.0241,0.0036647,0.00058551,0.0,0 STARLINK-3846,1 52647U 22052BB  24134.33505028  .00058551  00000-0  36647-2 0  9997,2 52647  53.2189   6.1204 0000995  68.0857 292.0241 15.08859216111068,6917.822,95.436,540.375,538.998,0.0
52647.0,STARLINK-3846,PAYLOAD,2024-05-13 15:59:23,15.08878631,0.000147,53.2184,4.6338,79.7465,280.3693,0.0030112,0.00048013,0.0,0 STARLINK-3846,1 52647U 22052BB  24134.66624663  .00048013  00000-0  30112-2 0  9993,2 52647  53.2184   4.6338 0001470  79.7465 280.3693 15.08878631111116,6917.762,95.435,540.644,538.61,0.0
52647.0,STARLINK-3846,PAYLOAD,2024-05-14 07:53:13,15.08888585,9.96e-05,53.2181,1.6598,72.5763,287.5338,0.0012803,0.00020174,0.0,0 STARLINK-3846,1 52647U 22052BB  24135.32862989  .00020174  00000-0  12803-2 0  9997,2 52647  53.2181   1.6598 0000996  72.5763 287.5338 15.08888585111217,6917.732,95.434,540.286,538.908,0.0
52647.0,STARLINK-3846,PAYLOAD,2024-05-14 14:14:46,15.08868962,0.000207,53.2202,0.47,83.6779,276.4449,0.0017961,0.00028436,0.0,0 STARLINK-3846,1 52647U 22052BB  24135.59359128  .00028436  00000-0  17961-2 0  9991,2 52647  53.2202   0.4700 0002070  83.6779 276.4449 15.08868962110887,6917.792,95.436,541.089,538.225,0.0
52647.0,STARLINK-3846,PAYLOAD,2024-05-14 22:11:41,15.08886408,0.0001702,53.2191,358.982,76.7254,283.3928,0.0033281,0.00053146,0.0,0 STARLINK-3846,1 52647U 22052BB  24135.92478551  .00053146  00000-0  33281-2 0  9999,2 52647  53.2191 358.9820 0001702  76.7254 283.3928 15.08886408110930,6917.739,95.435,540.781,538.426,0.0
52647.0,STARLINK-3846,PAYLOAD,2024-05-15 07:44:00,15.0886787,0.000241,53.2184,357.1984,81.1701,278.9564,0.0034194,0.00054597,0.0,0 STARLINK-3846,1 52647U 22052BB  24136.32222272  .00054597  00000-0  34194-2 0  9996,2 52647  53.2184 357.1984 0002410  81.1701 278.9564 15.08867870111364,6917.795,95.436,541.327,537.993,0.0
52647.0,STARLINK-3846,PAYLOAD,2024-05-15 20:27:05,15.08841579,7.82e-05,53.2179,354.8178,110.7418,249.3658,0.0017646,0.00027908,0.0,0 STARLINK-3846,1 52647U 22052BB  24136.85214173  .00027908  00000-0  17646-2 0  9994,2 52647  53.2179 354.8178 0000782 110.7418 249.3658 15.08841579111444,6917.876,95.437,540.282,539.2,0.0
52647.0,STARLINK-3846,PAYLOAD,2024-05-15 22:02:28,15.08841245,9.73e-05,53.218,354.5205,102.9548,257.1553,0.0023371,0.00037104,0.0,0 STARLINK-3846,1 52647U 22052BB  24136.91838372  .00037104  00000-0  23371-2 0  9995,2 52647  53.2180 354.5205 0000973 102.9548 257.1553 15.08841245111084,6917.877,95.437,540.415,539.068,0.0
52647.0,STARLINK-3846,PAYLOAD,2024-05-16 13:56:20,15.08877572,0.000345,53.215,351.5506,79.6009,280.5372,0.003599,0.00057521,0.0,0 STARLINK-3846,1 52647U 22052BB  24137.58078768  .00057521  00000-0  35990-2 0  9999,2 52647  53.2150 351.5506 0003450  79.6009 280.5372 15.08877572111189,6917.766,95.435,542.017,537.244,0.0
52647.0,STARLINK-3846,PAYLOAD,2024-05-16 20:17:52,15.0884893,8.46e-05,53.2156,350.3615,88.7231,271.3858,0.0012219,0.00019217,0.0,0 STARLINK-3846,1 52647U 22052BB  24137.84574202  .00019217  00000-0  12219-2 0  9991,2 52647  53.2156 350.3615 0000846  88.7231 271.3858 15.08848930111225,6917.853,95.437,540.303,539.133,0.0
52647.0,STARLINK-3846,PAYLOAD,2024-05-16 23:28:38,15.08849019,0.0001169,53.2155,349.7669,82.3884,277.7241,0.0011676,0.00018348,0.0,0 STARLINK-3846,1 52647U 22052BB  24137.97822158  .00018348  00000-0  11676-2 0  9991,2 52647  53.2155 349.7669 0001169  82.3884 277.7241 15.08849019111616,6917.853,95.437,540.527,538.909,0.0
52647.0,STARLINK-3846,PAYLOAD,2024-05-17 20:08:39,15.0885395,0.0002761,53.2176,345.8951,108.3724,251.7569,0.0014212,0.00022412,0.0,0 STARLINK-3846,1 52647U 22052BB  24138.83935008  .00022412  00000-0  14212-2 0  9992,2 52647  53.2176 345.8951 0002761 108.3724 251.7569 15.08853950111749,6917.838,95.437,541.613,537.793,0.0
52647.0,STARLINK-3846,PAYLOAD,2024-05-18 07:16:21,15.08872446,4.09e-05,53.2189,343.8162,167.6439,192.4563,0.0022395,0.00035565,0.0,0 STARLINK-3846,1 52647U 22052BB  24139.30302679  .00035565  00000-0  22395-2 0  9991,2 52647  53.2189 343.8162 0000409 167.6439 192.4563 15.08872446111817,6917.781,95.436,539.929,539.363,0.0
52647.0,STARLINK-3846,PAYLOAD,2024-05-18 19:59:26,15.08864518,0.0001513,53.2179,341.4374,104.9279,255.1881,0.0010154,0.0001592,0.0,0 STARLINK-3846,1 52647U 22052BB  24139.83294560  .00015920  00000-0  10154-2 0  9991,2 52647  53.2179 341.4374 0001513 104.9279 255.1881 15.08864518111897,6917.805,95.436,540.717,538.624,0.0
52647.0,STARLINK-3846,PAYLOAD,2024-05-18 23:10:12,15.08872686,0.0001345,53.2158,340.8436,91.2069,268.9077,0.0015824,0.00025008,0.0,0 STARLINK-3846,1 52647U 22052BB  24139.96542403  .00025008  00000-0  15824-2 0  9994,2 52647  53.2158 340.8436 0001345  91.2069 268.9077 15.08872686111540,6917.78,95.435,540.576,538.715,0.0
52647.0,STARLINK-3846,PAYLOAD,2024-05-19 19:50:13,15.0883254,9.06e-05,53.2156,336.9786,58.8345,301.2736,-3.724e-05,-8.8e-06,0.0,0 STARLINK-3846,1 52647U 22052BB  24140.82654994 -.00000880  00000-0 -37240-4 0  9991,2 52647  53.2156 336.9786 0000906  58.8345 301.2736 15.08832540112044,6917.903,95.438,540.395,539.141,0.0
52647.0,STARLINK-3846,PAYLOAD,2024-05-19 23:01:00,15.08827806,8.63e-05,53.2161,336.3862,68.7538,291.3546,-9.5295e-05,-1.803e-05,0.0,0 STARLINK-3846,1 52647U 22052BB  24140.95903165 -.00001803  00000-0 -95295-4 0  9992,2 52647  53.2161 336.3862 0000863  68.7538 291.3546 15.08827806111692,6917.918,95.438,540.38,539.186,0.0
52647.0,STARLINK-3846,PAYLOAD,2024-05-20 18:05:38,15.08826807,0.0001186,53.2163,332.8176,52.8638,307.2462,-4.1046e-05,-9.41e-06,0.0,0 STARLINK-3846,1 52647U 22052BB  24141.75392328 -.00000941  00000-0 -41046-4 0  9991,2 52647  53.2163 332.8176 0001186  52.8638 307.2462 15.08826807112186,6917.921,95.438,540.606,538.965,0.0
52647.0,STARLINK-3846,PAYLOAD,2024-05-21 19:31:49,15.08848919,0.000124,53.2177,328.0576,67.8695,292.2429,0.00057365,8.856e-05,0.0,0 STARLINK-3846,1 52647U 22052BB  24142.81376169  .00008856  00000-0  57365-3 0  9995,2 52647  53.2177 328.0576 0001240  67.8695 292.2429 15.08848919112344,6917.853,95.437,540.576,538.86,0.0
52647.0,STARLINK-3846,PAYLOAD,2024-05-22 20:57:58,15.0884951,0.0001176,53.2177,323.2995,82.2376,277.875,0.00018931,2.727e-05,0.0,0 STARLINK-3846,1 52647U 22052BB  24143.87359702  .00002727  00000-0  18931-3 0  9993,2 52647  53.2177 323.2995 0001176  82.2376 277.8750 15.08849510112503,6917.851,95.437,540.53,538.903,0.0
52647.0,STARLINK-3846,PAYLOAD,2024-05-23 19:13:23,15.08833911,0.0001325,53.2178,319.1346,78.1883,281.9258,0.00030904,4.633e-05,0.0,0 STARLINK-3846,1 52647U 22052BB  24144.80096305  .00004633  00000-0  30904-3 0  9996,2 52647  53.2178 319.1346 0001325  78.1883 281.9258 15.08833911112643,6917.899,95.438,540.681,538.847,0.0
52647.0,STARLINK-3846,PAYLOAD,2024-05-23 20:48:45,15.08843068,0.0001306,53.2185,318.8397,77.3604,282.7534,-9.1647e-06,-4.34e-06,0.0,0 STARLINK-3846,1 52647U 22052BB  24144.86719879 -.00000434  00000-0 -91647-5 0  9990,2 52647  53.2185 318.8397 0001306  77.3604 282.7534 15.08843068112284,6917.871,95.437,540.639,538.833,0.0
52647.0,STARLINK-3846,PAYLOAD,2024-05-24 19:04:09,15.08846932,0.0001104,53.2172,314.6759,84.2413,275.8705,0.00020261,2.939e-05,0.0,0 STARLINK-3846,1 52647U 22052BB  24145.79455547  .00002939  00000-0  20261-3 0  9994,2 52647  53.2172 314.6759 0001104  84.2413 275.8705 15.08846932112799,6917.859,95.437,540.488,538.96,0.0
52647.0,STARLINK-3846,PAYLOAD,2024-05-24 20:39:32,15.08848854,0.0001118,53.2173,314.3767,91.0159,269.0961,0.00023648,3.479e-05,0.0,0 STARLINK-3846,1 52647U 22052BB  24145.86079407  .00003479  00000-0  23648-3 0  9991,2 52647  53.2173 314.3767 0001118  91.0159 269.0961 15.08848854112439,6917.853,95.437,540.492,538.945,0.0
52647.0,STARLINK-3846,PAYLOAD,2024-05-25 10:58:00,15.08843379,9.75e-05,53.2163,311.7001,106.5236,253.5863,0.00012121,1.642e-05,0.0,0 STARLINK-3846,1 52647U 22052BB  24146.45695518  .00001642  00000-0  12121-3 0  9998,2 52647  53.2163 311.7001 0000975 106.5236 253.5863 15.08843379112524,6917.87,95.437,540.41,539.061,0.0
52647.0,STARLINK-3846,PAYLOAD,2024-05-25 17:19:33,15.0883736,9.58e-05,53.2176,310.5097,82.8261,277.284,3.3432e-05,2.44e-06,0.0,0 STARLINK-3846,1 52647U 22052BB  24146.72191976  .00000244  00000-0  33432-4 0  9993,2 52647  53.2176 310.5097 0000958  82.8261 277.2840 15.08837360112931,6917.888,95.438,540.416,539.091,0.0
52647.0,STARLINK-3846,PAYLOAD,2024-05-26 04:27:15,15.08837927,9.47e-05,53.2177,308.4299,98.169,261.941,4.1111e-05,3.67e-06,0.0,0 STARLINK-3846,1 52647U 22052BB  24147.18559968  .00000367  00000-0  41111-4 0  9992,2 52647  53.2177 308.4299 0000947  98.1690 261.9410 15.08837927112635,6917.887,95.438,540.407,539.097,0.0
52647.0,STARLINK-3846,PAYLOAD,2024-05-26 20:21:06,15.08846868,0.000109,53.2184,305.4577,106.1387,253.9725,-4.9771e-06,-3.67e-06,0.0,0 STARLINK-3846,1 52647U 22052BB  24147.84799719 -.00000367  00000-0 -49771-5 0  9998,2 52647  53.2184 305.4577 0001090 106.1387 253.9725 15.08846868113109,6917.859,95.437,540.478,538.97,0.0
52647.0,STARLINK-3846,PAYLOAD,2024-05-27 13:50:21,15.08836596,0.0001195,53.2189,302.1867,76.3019,283.8106,0.00015114,2.118e-05,0.0,0 STARLINK-3846,1 52647U 22052BB  24148.57663982  .00002118  00000-0  15114-3 0  9997,2 52647  53.2189 302.1867 0001195  76.3019 283.8106 15.08836596112848,6917.891,95.438,540.582,538.929,0.0
